NORAD_CAT_ID,OBJECT_NAME,OBJECT_TYPE,EPOCH,MEAN_MOTION,ECCENTRICITY,INCLINATION,RA_OF_ASC_NODE,ARG_OF_PERICENTER,MEAN_ANOMALY,BSTAR,MEAN_MOTION_DOT,MEAN_MOTION_DDOT,TLE_LINE0,TLE_LINE1,TLE_LINE2,SEMIMAJOR_AXIS,PERIOD,APOGEE,PERIGEE,DECAYED
53777.0,STARLINK-4664,PAYLOAD,2023-02-01 04:20:43,15.08857101,0.0001282,53.2182,318.3027,82.4508,277.663,0.00031605,4.748e-05,0.0,0 STARLINK-4664,1 53777U 22111E   23032.18105606  .00004748  00000-0  31605-3 0  9994,2 53777  53.2182 318.3027 0001282  82.4508 277.6630 15.08857101 21916,6917.828,95.436,540.58,538.806,0.0
53777.0,STARLINK-4664,PAYLOAD,2023-02-01 18:39:11,15.08842375,0.0001194,53.2184,315.6266,83.1274,276.9854,5.9302e-05,6.56e-06,0.0,0 STARLINK-4664,1 53777U 22111E   23032.77722065  .00000656  00000-0  59302-4 0  9992,2 53777  53.2184 315.6266 0001194  83.1274 276.9854 15.08842375 22001,6917.873,95.437,540.564,538.912,0.0
53777.0,STARLINK-4664,PAYLOAD,2023-02-02 04:11:30,15.08851451,0.0001211,53.2177,313.8422,86.3464,273.7667,0.00033769,5.092e-05,0.0,0 STARLINK-4664,1 53777U 22111E   23033.17465721  .00005092  00000-0  33769-3 0  9997,2 53777  53.2177 313.8422 0001211  86.3464 273.7667 15.08851451 22870,6917.845,95.437,540.548,538.873,0.0
53777.0,STARLINK-4664,PAYLOAD,2023-02-03 00:51:31,15.0884933,0.0001109,53.2178,309.9778,87.8596,272.2523,0.00029819,4.462e-05,0.0,0 STARLINK-4664,1 53777U 22111E   23034.03577758  .00004462  00000-0  29819-3 0  9998,2 53777  53.2178 309.9778 0001109  87.8596 272.2523 15.08849330 22192,6917.852,95.437,540.484,538.95,0.0
53777.0,STARLINK-4664,PAYLOAD,2023-02-03 04:02:17,15.08853987,0.0001199,53.2181,309.3817,90.6506,269.4623,0.00064871,0.00010055,0.0,0 STARLINK-4664,1 53777U 22111E   23034.16825656  .00010055  00000-0  64871-3 0  9997,2 53777  53.2181 309.3817 0001199  90.6506 269.4623 15.08853987 23021,6917.838,95.437,540.532,538.873,0.0
53777.0,STARLINK-4664,PAYLOAD,2023-02-03 18:20:46,15.08840498,0.0001521,53.2174,306.7054,96.6405,263.476,0.0001597,2.255e-05,0.0,0 STARLINK-4664,1 53777U 22111E   23034.76442264  .00002255  00000-0  15970-3 0  9992,2 53777  53.2174 306.7054 0001521  96.6405 263.4760 15.08840498 22309,6917.879,95.438,540.796,538.692,0.0
53777.0,STARLINK-4664,PAYLOAD,2023-02-04 03:53:05,15.08840044,0.0001602,53.2171,304.9231,86.9176,273.1999,0.00018968,2.732e-05,0.0,0 STARLINK-4664,1 53777U 22111E   23035.16186433  .00002732  00000-0  18968-3 0  9990,2 53777  53.2171 304.9231 0001602  86.9176 273.1999 15.08840044 23175,6917.88,95.438,540.853,538.637,0.0
53777.0,STARLINK-4664,PAYLOAD,2023-02-04 21:22:19,15.08850478,0.0001204,53.2167,301.6515,69.6531,290.459,0.00033724,5.085e-05,0.0,0 STARLINK-4664,1 53777U 22111E   23035.89050110  .00005085  00000-0  33724-3 0  9993,2 53777  53.2167 301.6515 0001204  69.6531 290.4590 15.08850478 22473,6917.848,95.437,540.546,538.88,0.0
53777.0,STARLINK-4664,PAYLOAD,2023-02-05 02:08:28,15.0886025,0.0001211,53.2174,300.7592,76.0125,284.1002,0.00074867,0.00011654,0.0,0 STARLINK-4664,1 53777U 22111E   23036.08921867  .00011654  00000-0  74867-3 0  9993,2 53777  53.2174 300.7592 0001211  76.0125 284.1002 15.08860250 22506,6917.818,95.436,540.521,538.846,0.0
53777.0,STARLINK-4664,PAYLOAD,2023-02-05 18:02:20,15.08838557,0.000113,53.2164,297.7853,81.1273,278.9847,5.4146e-05,5.74e-06,0.0,0 STARLINK-4664,1 53777U 22111E   23036.75162509  .00000574  00000-0  54146-4 0  9995,2 53777  53.2164 297.7853 0001130  81.1273 278.9847 15.08838557 22605,6917.885,95.438,540.532,538.968,0.0
53777.0,STARLINK-4664,PAYLOAD,2023-02-05 21:13:06,15.08837672,0.0001233,53.2165,297.1908,84.4872,275.626,9.5632e-05,1.234e-05,0.0,0 STARLINK-4664,1 53777U 22111E   23036.88410502  .00001234  00000-0  95632-4 0  9997,2 53777  53.2165 297.1908 0001233  84.4872 275.6260 15.08837672 23438,6917.888,95.438,540.605,538.9,0.0
53777.0,STARLINK-4664,PAYLOAD,2023-02-06 03:34:39,15.0883978,0.000133,53.2172,296.0019,89.242,270.8724,0.0003703,5.61e-05,0.0,0 STARLINK-4664,1 53777U 22111E   23037.14906615  .00005610  00000-0  37030-3 0  9991,2 53777  53.2172 296.0019 0001330  89.2420 270.8724 15.08839780 23475,6917.881,95.438,540.666,538.826,0.0
53777.0,STARLINK-4664,PAYLOAD,2023-02-06 21:03:53,15.08845861,0.0001377,53.2172,292.7313,91.6807,268.4343,0.00053237,8.196e-05,0.0,0 STARLINK-4664,1 53777U 22111E   23037.87770709  .00008196  00000-0  53237-3 0  9993,2 53777  53.2172 292.7313 0001377  91.6807 268.4343 15.08845861 22771,6917.862,95.437,540.68,538.775,0.0
53777.0,STARLINK-4664,PAYLOAD,2023-02-07 01:50:03,15.08854469,0.000137,53.217,291.8392,89.4847,270.6302,0.00068901,0.00010699,0.0,0 STARLINK-4664,1 53777U 22111E   23038.07642474  .00010699  00000-0  68901-3 0  9998,2 53777  53.2170 291.8392 0001370  89.4847 270.6302 15.08854469 23616,6917.836,95.437,540.649,538.753,0.0
53777.0,STARLINK-4664,PAYLOAD,2023-02-07 20:54:40,15.08848967,0.0001331,53.2168,288.2709,91.8344,268.2801,0.00037893,5.749e-05,0.0,0 STARLINK-4664,1 53777U 22111E   23038.87130557  .00005749  00000-0  37893-3 0  9996,2 53777  53.2168 288.2709 0001331  91.8344 268.2801 15.08848967 23737,6917.853,95.437,540.639,538.797,0.0
53777.0,STARLINK-4664,PAYLOAD,2023-02-07 22:30:03,15.08848558,0.0001447,53.2175,287.9741,83.1098,277.0059,0.00039418,5.992e-05,0.0,0 STARLINK-4664,1 53777U 22111E   23038.93754603  .00005992  00000-0  39418-3 0  9992,2 53777  53.2175 287.9741 0001447  83.1098 277.0059 15.08848558 22935,6917.854,95.437,540.72,538.718,0.0
53777.0,STARLINK-4664,PAYLOAD,2023-02-08 03:16:13,15.08862046,0.0001419,53.2165,287.0815,94.1684,265.947,0.00093576,0.00014645,0.0,0 STARLINK-4664,1 53777U 22111E   23039.13626210  .00014645  00000-0  93576-3 0  9997,2 53777  53.2165 287.0815 0001419  94.1684 265.9470 15.08862046 22963,6917.813,95.436,540.66,538.696,0.0
53777.0,STARLINK-4664,PAYLOAD,2023-02-08 22:20:51,15.08843277,0.0001155,53.2171,283.5115,109.3106,250.8012,0.001007,0.00015776,0.0,0 STARLINK-4664,1 53777U 22111E   23039.93114762  .00015776  00000-0  10070-2 0  9992,2 53777  53.2171 283.5115 0001155 109.3106 250.8012 15.08843277 23892,6917.87,95.437,540.534,538.936,0.0
53777.0,STARLINK-4664,PAYLOAD,2023-02-09 20:36:15,15.08845468,0.0001167,53.2168,279.3489,112.0188,248.0928,0.0014364,0.0002265,0.0,0 STARLINK-4664,1 53777U 22111E   23040.85851201  .00022650  00000-0  14364-2 0  9990,2 53777  53.2168 279.3489 0001167 112.0188 248.0928 15.08845468 24035,6917.864,95.437,540.536,538.921,0.0
53777.0,STARLINK-4664,PAYLOAD,2023-02-09 22:11:38,15.08848476,0.0001099,53.2169,279.0516,105.3579,254.7534,0.0015346,0.00024225,0.0,0 STARLINK-4664,1 53777U 22111E   23040.92475227  .00024225  00000-0  15346-2 0  9999,2 53777  53.2169 279.0516 0001099 105.3579 254.7534 15.08848476 23237,6917.854,95.437,540.48,538.959,0.0
53777.0,STARLINK-4664,PAYLOAD,2023-02-10 01:22:24,15.08851389,0.0001295,53.2167,278.4578,62.06,298.0523,0.00082603,0.00012887,0.0,0 STARLINK-4664,1 53777U 22111E   23041.05723244  .00012887  00000-0  82603-3 0  9991,2 53777  53.2167 278.4578 0001295  62.0600 298.0523 15.08851389 24066,6917.846,95.437,540.606,538.815,0.0
53777.0,STARLINK-4664,PAYLOAD,2023-02-10 22:02:25,15.08845979,3.31e-05,53.2176,274.5927,122.4791,237.6233,0.00039213,5.96e-05,0.0,0 STARLINK-4664,1 53777U 22111E   23041.91834949  .00005960  00000-0  39213-3 0  9994,2 53777  53.2176 274.5927 0000331 122.4791 237.6233 15.08845979 24192,6917.862,95.437,539.956,539.498,0.0
53777.0,STARLINK-4664,PAYLOAD,2023-02-11 21:53:12,15.08843762,0.0001118,53.2177,270.1334,94.0519,266.0601,0.00079433,0.00012378,0.0,0 STARLINK-4664,1 53777U 22111E   23042.91195360  .00012378  00000-0  79433-3 0  9991,2 53777  53.2177 270.1334 0001118  94.0519 266.0601 15.08843762 24343,6917.869,95.437,540.507,538.96,0.0
53777.0,STARLINK-4664,PAYLOAD,2023-02-11 23:28:35,15.08844954,0.0001086,53.2174,269.8357,94.6512,265.4604,0.00070882,0.00011012,0.0,0 STARLINK-4664,1 53777U 22111E   23042.97819333  .00011012  00000-0  70882-3 0  9993,2 53777  53.2174 269.8357 0001086  94.6512 265.4604 15.08844954 23544,6917.865,95.437,540.482,538.979,0.0
53777.0,STARLINK-4664,PAYLOAD,2023-02-12 07:25:31,15.08843203,0.000129,53.2171,268.3445,94.4059,265.708,0.00019578,2.83e-05,0.0,0 STARLINK-4664,1 53777U 22111E   23043.30939529  .00002830  00000-0  19578-3 0  9994,2 53777  53.2171 268.3445 0001290  94.4059 265.7080 15.08843203 24407,6917.871,95.437,540.628,538.843,0.0
53777.0,STARLINK-4664,PAYLOAD,2023-02-12 15:22:27,15.08829479,0.0001337,53.2173,266.8618,96.4941,263.6204,0.00040882,6.223e-05,0.0,0 STARLINK-4664,1 53777U 22111E   23043.64059813  .00006223  00000-0  40882-3 0  9992,2 53777  53.2173 266.8618 0001337  96.4941 263.6204 15.08829479 23647,6917.913,95.438,540.702,538.853,0.0
53777.0,STARLINK-4664,PAYLOAD,2023-02-13 00:54:46,15.08838579,0.0001431,53.2167,265.0771,97.5051,262.6104,0.0004827,7.402e-05,0.0,0 STARLINK-4664,1 53777U 22111E   23044.03803888  .00007402  00000-0  48270-3 0  9994,2 53777  53.2167 265.0771 0001431  97.5051 262.6104 15.08838579 24516,6917.885,95.438,540.74,538.76,0.0
53777.0,STARLINK-4664,PAYLOAD,2023-02-14 00:45:33,15.08850858,0.0001036,53.216,260.6143,77.3412,282.7696,0.00053842,8.294e-05,0.0,0 STARLINK-4664,1 53777U 22111E   23045.03163742  .00008294  00000-0  53842-3 0  9994,2 53777  53.2160 260.6143 0001036  77.3412 282.7696 15.08850858 23850,6917.847,95.437,540.429,538.996,0.0
53777.0,STARLINK-4664,PAYLOAD,2023-02-14 07:07:06,15.08841377,0.0001209,53.2167,259.4248,79.2517,280.8611,0.00011918,1.609e-05,0.0,0 STARLINK-4664,1 53777U 22111E   23045.29659922  .00001609  00000-0  11918-3 0  9993,2 53777  53.2167 259.4248 0001209  79.2517 280.8611 15.08841377 23894,6917.876,95.437,540.578,538.905,0.0
53777.0,STARLINK-4664,PAYLOAD,2023-02-14 13:28:38,15.08838214,0.0001486,53.2165,258.2363,86.2389,273.8773,8.1104e-05,1.003e-05,0.0,0 STARLINK-4664,1 53777U 22111E   23045.56156130  .00001003  00000-0  81104-4 0  9999,2 53777  53.2165 258.2363 0001486  86.2389 273.8773 15.08838214 24741,6917.886,95.438,540.779,538.723,0.0
